[{"OBJECT_NAME":"STARLINK-4697","OBJECT_ID":"2022-107AC","EPOCH":"2026-03-09T22:38:20.637888","MEAN_MOTION":15.08825939,"ECCENTRICITY":0.00011893,"INCLINATION":53.2161,"RA_OF_ASC_NODE":252.8579,"ARG_OF_PERICENTER":110.2879,"MEAN_ANOMALY":249.8241,"EPHEMERIS_TYPE":0,"CLASSIFICATION_TYPE":"U","NORAD_CAT_ID":53726,"ELEMENT_SET_NO":999,"REV_AT_EPOCH":19445,"BSTAR":-7.7919888e-5,"MEAN_MOTION_DOT":-1.527e-5,"MEAN_MOTION_DDOT":0},{"OBJECT_NAME":"LEMUR-2-KREMPEL-BRO1","OBJECT_ID":"2025-061G","EPOCH":"2026-03-09T22:19:45.751296","MEAN_MOTION":15.13773226,"ECCENTRICITY":0.0017497,"INCLINATION":97.5535,"RA_OF_ASC_NODE":45.5283,"ARG_OF_PERICENTER":227.946,"MEAN_ANOMALY":132.0284,"EPHEMERIS_TYPE":0,"CLASSIFICATION_TYPE":"U","NORAD_CAT_ID":63357,"ELEMENT_SET_NO":999,"REV_AT_EPOCH":5261,"BSTAR":0.00031891713,"MEAN_MOTION_DOT":5.707e-5,"MEAN_MOTION_DDOT":0}]
